[{"OBJECT_NAME":"AEROCUBE 5C","OBJECT_ID":"2015-058B","EPOCH":"2026-03-09T17:05:14.563104","MEAN_MOTION":14.90857126,"ECCENTRICITY":0.01306722,"INCLINATION":64.7674,"RA_OF_ASC_NODE":211.9094,"ARG_OF_PERICENTER":102.486,"MEAN_ANOMALY":259.0908,"EPHEMERIS_TYPE":0,"CLASSIFICATION_TYPE":"U","NORAD_CAT_ID":40965,"ELEMENT_SET_NO":999,"REV_AT_EPOCH":35082,"BSTAR":0.0004279104,"MEAN_MOTION_DOT":4.804e-5,"MEAN_MOTION_DDOT":0},{"OBJECT_NAME":"CZ-6A DEB","OBJECT_ID":"2022-151S","EPOCH":"2026-03-09T05:48:50.516640","MEAN_MOTION":14.69560381,"ECCENTRICITY":0.0081654,"INCLINATION":98.8143,"RA_OF_ASC_NODE":161.847,"ARG_OF_PERICENTER":229.9981,"MEAN_ANOMALY":129.4036,"EPHEMERIS_TYPE":0,"CLASSIFICATION_TYPE":"U","NORAD_CAT_ID":54275,"ELEMENT_SET_NO":999,"REV_AT_EPOCH":17551,"BSTAR":0.0027616474,"MEAN_MOTION_DOT":0.00017235,"MEAN_MOTION_DDOT":0}]
